{"fetched_at":"2026-07-18T17:30:24.381Z","source":"https://celestrak.org/NORAD/elements/gp.php?NAME=UMBRA&FORMAT=JSON","constellation":"umbra","records":[{"OBJECT_NAME":"UMBRA-07","OBJECT_ID":"2023-174AT","EPOCH":"2026-07-18T03:08:15.425376","CLASSIFICATION_TYPE":"U","MEAN_MOTION":15.09647848,"ECCENTRICITY":0.00019637,"INCLINATION":97.3772,"RA_OF_ASC_NODE":253.7297,"ARG_OF_PERICENTER":9.5165,"MEAN_ANOMALY":350.6101,"EPHEMERIS_TYPE":0,"NORAD_CAT_ID":58297,"ELEMENT_SET_NO":999,"REV_AT_EPOCH":14808,"BSTAR":0.00027092432,"MEAN_MOTION_DOT":0.00004299,"MEAN_MOTION_DDOT":0},{"OBJECT_NAME":"UMBRA-09","OBJECT_ID":"2024-149CB","EPOCH":"2026-07-18T04:05:26.633760","CLASSIFICATION_TYPE":"U","MEAN_MOTION":15.18902208,"ECCENTRICITY":0.00021069,"INCLINATION":97.6969,"RA_OF_ASC_NODE":286.9257,"ARG_OF_PERICENTER":193.6382,"MEAN_ANOMALY":166.4795,"EPHEMERIS_TYPE":0,"NORAD_CAT_ID":60541,"ELEMENT_SET_NO":999,"REV_AT_EPOCH":10542,"BSTAR":0.00039475455,"MEAN_MOTION_DOT":0.00008169,"MEAN_MOTION_DDOT":0},{"OBJECT_NAME":"UMBRA-10","OBJECT_ID":"2024-149CH","EPOCH":"2026-07-18T05:39:39.199104","CLASSIFICATION_TYPE":"U","MEAN_MOTION":15.18903245,"ECCENTRICITY":0.00018638,"INCLINATION":97.6973,"RA_OF_ASC_NODE":287.0228,"ARG_OF_PERICENTER":160.1146,"MEAN_ANOMALY":200.0161,"EPHEMERIS_TYPE":0,"NORAD_CAT_ID":60547,"ELEMENT_SET_NO":999,"REV_AT_EPOCH":10544,"BSTAR":0.00038530657,"MEAN_MOTION_DOT":0.00007972,"MEAN_MOTION_DDOT":0},{"OBJECT_NAME":"UMBRA-11","OBJECT_ID":"2025-276CL","EPOCH":"2026-07-18T04:19:35.912064","CLASSIFICATION_TYPE":"U","MEAN_MOTION":15.27849957,"ECCENTRICITY":0.00029412,"INCLINATION":97.4182,"RA_OF_ASC_NODE":273.6423,"ARG_OF_PERICENTER":177.0991,"MEAN_ANOMALY":183.0266,"EPHEMERIS_TYPE":0,"NORAD_CAT_ID":66748,"ELEMENT_SET_NO":999,"REV_AT_EPOCH":3522,"BSTAR":0.00039555015,"MEAN_MOTION_DOT":0.00010687,"MEAN_MOTION_DDOT":0},{"OBJECT_NAME":"UMBRA-12","OBJECT_ID":"2026-004J","EPOCH":"2026-07-18T06:41:44.126016","CLASSIFICATION_TYPE":"U","MEAN_MOTION":14.89546568,"ECCENTRICITY":0.00072091,"INCLINATION":97.8028,"RA_OF_ASC_NODE":197.6238,"ARG_OF_PERICENTER":44.8303,"MEAN_ANOMALY":315.3496,"EPHEMERIS_TYPE":0,"NORAD_CAT_ID":67371,"ELEMENT_SET_NO":999,"REV_AT_EPOCH":2793,"BSTAR":0.00026146079,"MEAN_MOTION_DOT":0.00002439,"MEAN_MOTION_DDOT":0}]}
