UMBRA-07                
1 58297U 23174AT  26199.13073409  .00004299  00000+0  27092-3 0  9998
2 58297  97.3772 253.7297 0001963   9.5165 350.6101 15.09647848148087
UMBRA-09                
1 60541U 24149CB  26199.17044715  .00008169  00000+0  39475-3 0  9996
2 60541  97.6969 286.9257 0002106 193.6382 166.4795 15.18902208105420
UMBRA-10                
1 60547U 24149CH  26199.23587036  .00007972  00000+0  38531-3 0  9990
2 60547  97.6973 287.0228 0001863 160.1146 200.0161 15.18903245105443
UMBRA-11                
1 66748U 25276CL  26199.18027676  .00010687  00000+0  39555-3 0  9998
2 66748  97.4182 273.6423 0002941 177.0991 183.0266 15.27849957 35226
UMBRA-12                
1 67371U 26004J   26199.27898294  .00002439  00000+0  26146-3 0  9991
2 67371  97.8028 197.6238 0007209  44.8303 315.3496 14.89546568 27934
